STARLINK-31902          
1 59666U 24084N   25213.16372531 -.00002096  00000+0 -66711-4 0  9994
2 59666  43.0016 207.4614 0001001 265.5635  94.5102 15.27558576 70612
STARLINK-31913          
1 59667U 24084P   25212.99872399 -.00000856  00000+0 -21584-4 0  9993
2 59667  43.0008 204.4821 0001057 271.7602  88.3128 15.27574432 70635
STARLINK-31866          
1 59668U 24084Q   25212.25940048  .00001563  00000+0  66327-4 0  9998
2 59668  43.0012 204.9123 0001186 267.9024  92.1692 15.27568651 70599
STARLINK-31917          
1 59669U 24084R   25213.01494298 -.00000791  00000+0 -19252-4 0  9994
2 59669  42.9997 208.0580 0000724 265.7470  94.3299 15.27576747 70592
STARLINK-31860          
1 59670U 24084S   25213.14363083  .00000636  00000+0  32640-4 0  9999
2 59670  43.0005 203.8467 0001028 274.9499  85.1235 15.27572061 70654
STARLINK-31854          
1 59671U 24084T   25212.90357360  .00001898  00000+0  78470-4 0  9996
2 59671  43.0017 175.6477 0001181 274.0814  85.9902 15.27579501 70966
STARLINK-31842          
1 59672U 24084U   25213.15134139 -.00000041  00000+0  80265-5 0  9998
2 59672  43.0015 203.9059 0000975 277.8065  82.2676 15.27574757 70657
STARLINK-31871          
1 59673U 24084V   25213.25002315  .00007510  00000+0  28224-3 0  9992
2 59673  42.9991 206.6281 0001246 270.2214 346.5836 15.27569022 70700
STARLINK-31875          
1 59674U 24084W   25212.67822021 -.00001242  00000+0 -35641-4 0  9992
2 59674  43.0000 206.3720 0000630 297.0425  63.0362 15.27569233 70615
STARLINK-31877          
1 59675U 24084X   25213.08803766 -.00000788  00000+0 -19143-4 0  9997
2 59675  42.9990 207.7457 0000710 264.4386  95.6385 15.27577161 70601
STARLINK-31884          
1 59676U 24084Y   25212.42261209  .00000734  00000+0  36183-4 0  9997
2 59676  43.0002 211.3759 0001118 272.2915  87.7809 15.27578553 70533
STARLINK-32108          
1 59682U 24086A   25212.51090046  .00000972  00000+0  44861-4 0  9991
2 59682  43.0038 232.6041 0001657 277.1947  82.8717 15.27579136 70167
STARLINK-32080          
1 59683U 24086B   25213.05584367  .00001035  00000+0  47153-4 0  9994
2 59683  43.0004 229.8171 0001296 281.9684  78.1022 15.27572699 70246
STARLINK-32091          
1 59684U 24086C   25212.32248012 -.00001085  00000+0 -29900-4 0  9995
2 59684  42.9996 222.5602 0001232 274.7434  85.3277 15.27580957 70357
STARLINK-32085          
1 59685U 24086D   25212.49854218  .00000883  00000+0  41624-4 0  9995
2 59685  43.0059 229.0836 0001811 281.9756  78.0893 15.27572001 70287
STARLINK-32100          
1 59686U 24086E   25213.04314891 -.00002433  00000+0 -78943-4 0  9995
2 59686  43.0039 207.8784 0001818 277.8344  82.2302 15.27566519 70533
STARLINK-32089          
1 59687U 24086F   25212.41773691 -.00000096  00000+0  60467-5 0  9998
2 59687  42.9989 229.3371 0001019 273.3707  86.7028 15.27576498 70276
STARLINK-32103          
1 59688U 24086G   25213.07177240 -.00000057  00000+0  74418-5 0  9998
2 59688  43.0007 215.2638 0001151 260.1174  99.9547 15.27580426 70413
STARLINK-32105          
1 59689U 24086H   25212.41131344 -.00000340  00000+0 -28196-5 0  9999
2 59689  42.9994 229.2887 0001057 273.2163  86.8567 15.27577871 70277
STARLINK-32106          
1 59690U 24086J   25212.37630614  .00000370  00000+0  22977-4 0  9991
2 59690  43.0007 222.1026 0001443 270.8212  89.2474 15.27578073 70358
STARLINK-32090          
1 59691U 24086K   25213.11737886 -.00000075  00000+0  68042-5 0  9991
2 59691  43.0001 229.4413 0001023 241.4610 118.6139 15.27573973 70149
STARLINK-32088          
1 59693U 24086M   25213.16864780 -.00000461  00000+0 -72420-5 0  9997
2 59693  43.0004 217.7292 0001195 263.5731  96.4984 15.27578157 70395
STARLINK-32107          
1 59694U 24086N   25213.17040092  .00000685  00000+0  34428-4 0  9992
2 59694  43.0003 225.5252 0001105 301.3829  58.6915 15.27574750 70140
STARLINK-32104          
1 59695U 24086P   25213.03881383  .00000961  00000+0  44439-4 0  9994
2 59695  43.0004 222.7252 0001440 262.7110  97.3578 15.27569321 70329
STARLINK-32094          
1 59696U 24086Q   25213.17428505  .00009636  00000+0  36006-3 0  9991
2 59696  42.9982 225.5458 0000441 236.7773 123.3037 15.27503153 70093
STARLINK-32099          
1 59697U 24086R   25212.08823199 -.00002416  00000+0 -78301-4 0  9995
2 59697  43.0000 231.1626 0000714 282.4626  77.6146 15.27583205 70228
STARLINK-32096          
1 59698U 24086S   25213.14855582 -.00001438  00000+0 -42768-4 0  9996
2 59698  43.0018 225.3578 0001072 275.5035  84.5695 15.27574391 70305
STARLINK-32102          
1 59699U 24086T   25212.42159359  .00000165  00000+0  15522-4 0  9998
2 59699  43.0001 229.3662 0000934 272.1899  87.8845 15.27576941 70275
STARLINK-32092          
1 59700U 24086U   25212.43958937 -.00000016  00000+0  89327-5 0  9992
2 59700  42.9992 229.4993 0000700 338.4984  21.5838 15.27575464 70271
