OBJECT_NAME,OBJECT_ID,EPOCH,MEAN_MOTION,ECCENTRICITY,INCLINATION,RA_OF_ASC_NODE,ARG_OF_PERICENTER,MEAN_ANOMALY,EPHEMERIS_TYPE,CLASSIFICATION_TYPE,NORAD_CAT_ID,ELEMENT_SET_NO,REV_AT_EPOCH,BSTAR,MEAN_MOTION_DOT,MEAN_MOTION_DDOT,sigma_x,sigma_y,sigma_z
STARLINK-31902,2024-084N,2025-08-01T03:55:45.866784,15.27558576,0.0001001,43.0016,207.4614,265.5635,94.5102,0,U,59666,999,7061,-6.6711e-05,-2.096e-05,0.0,0.5,0.5,0.5
STARLINK-31913,2024-084P,2025-07-31T23:58:09.752736,15.27574432,0.0001057,43.0008,204.4821,271.7602,88.3128,0,U,59667,999,7063,-2.1584e-05,-8.56e-06,0.0,0.5,0.5,0.5
STARLINK-31866,2024-084Q,2025-07-31T06:13:32.201472,15.27568651,0.0001186,43.0012,204.9123,267.9024,92.1692,0,U,59668,999,7059,6.6327e-05,1.563e-05,0.0,0.5,0.5,0.5
STARLINK-31917,2024-084R,2025-08-01T00:21:31.073472,15.27576747,7.24e-05,42.9997,208.058,265.747,94.3299,0,U,59669,999,7059,-1.9252e-05,-7.91e-06,0.0,0.5,0.5,0.5
STARLINK-31860,2024-084S,2025-08-01T03:26:49.703712,15.27572061,0.0001028,43.0005,203.8467,274.9499,85.1235,0,U,59670,999,7065,3.264e-05,6.36e-06,0.0,0.5,0.5,0.5
STARLINK-31854,2024-084T,2025-07-31T21:41:08.759040,15.27579501,0.0001181,43.0017,175.6477,274.0814,85.9902,0,U,59671,999,7096,7.847e-05,1.898e-05,0.0,0.5,0.5,0.5
STARLINK-31842,2024-084U,2025-08-01T03:37:55.896096,15.27574757,9.75e-05,43.0015,203.9059,277.8065,82.2676,0,U,59672,999,7065,8.0265e-06,-4.1e-07,0.0,0.5,0.5,0.5
STARLINK-31871,2024-084V,2025-08-01T06:00:02.000160,15.27569022,0.0001246,42.9991,206.6281,270.2214,346.5836,0,U,59673,999,7070,0.00028224,7.51e-05,0.0,0.5,0.5,0.5
STARLINK-31875,2024-084W,2025-07-31T16:16:38.226144,15.27569233,6.3e-05,43.0,206.372,297.0425,63.0362,0,U,59674,999,7061,-3.5641e-05,-1.242e-05,0.0,0.5,0.5,0.5
STARLINK-31877,2024-084X,2025-08-01T02:06:46.453824,15.27577161,7.1e-05,42.999,207.7457,264.4386,95.6385,0,U,59675,999,7060,-1.9143e-05,-7.88e-06,0.0,0.5,0.5,0.5
STARLINK-31884,2024-084Y,2025-07-31T10:08:33.684576,15.27578553,0.0001118,43.0002,211.3759,272.2915,87.7809,0,U,59676,999,7053,3.6183e-05,7.34e-06,0.0,0.5,0.5,0.5
STARLINK-32108,2024-086A,2025-07-31T12:15:41.799744,15.27579136,0.0001657,43.0038,232.6041,277.1947,82.8717,0,U,59682,999,7016,4.4861e-05,9.72e-06,0.0,0.5,0.5,0.5
STARLINK-32080,2024-086B,2025-08-01T01:20:24.893088,15.27572699,0.0001296,43.0004,229.8171,281.9684,78.1022,0,U,59683,999,7024,4.7153e-05,1.035e-05,0.0,0.5,0.5,0.5
STARLINK-32091,2024-086C,2025-07-31T07:44:22.282368,15.27580957,0.0001232,42.9996,222.5602,274.7434,85.3277,0,U,59684,999,7035,-2.99e-05,-1.085e-05,0.0,0.5,0.5,0.5
STARLINK-32085,2024-086D,2025-07-31T11:57:54.044352,15.27572001,0.0001811,43.0059,229.0836,281.9756,78.0893,0,U,59685,999,7028,4.1624e-05,8.83e-06,0.0,0.5,0.5,0.5
STARLINK-32100,2024-086E,2025-08-01T01:02:08.065824,15.27566519,0.0001818,43.0039,207.8784,277.8344,82.2302,0,U,59686,999,7053,-7.8943e-05,-2.433e-05,0.0,0.5,0.5,0.5
STARLINK-32089,2024-086F,2025-07-31T10:01:32.469024,15.27576498,0.0001019,42.9989,229.3371,273.3707,86.7028,0,U,59687,999,7027,6.0467e-06,-9.6e-07,0.0,0.5,0.5,0.5
STARLINK-32103,2024-086G,2025-08-01T01:43:21.135360,15.27580426,0.0001151,43.0007,215.2638,260.1174,99.9547,0,U,59688,999,7041,7.4418e-06,-5.7e-07,0.0,0.5,0.5,0.5
STARLINK-32105,2024-086H,2025-07-31T09:52:17.481216,15.27577871,0.0001057,42.9994,229.2887,273.2163,86.8567,0,U,59689,999,7027,-2.8196e-06,-3.4e-06,0.0,0.5,0.5,0.5
STARLINK-32106,2024-086J,2025-07-31T09:01:52.850496,15.27578073,0.0001443,43.0007,222.1026,270.8212,89.2474,0,U,59690,999,7035,2.2977e-05,3.7e-06,0.0,0.5,0.5,0.5
STARLINK-32090,2024-086K,2025-08-01T02:49:01.533504,15.27573973,0.0001023,43.0001,229.4413,241.461,118.6139,0,U,59691,999,7014,6.8042e-06,-7.5e-07,0.0,0.5,0.5,0.5
STARLINK-32088,2024-086M,2025-08-01T04:02:51.169920,15.27578157,0.0001195,43.0004,217.7292,263.5731,96.4984,0,U,59693,999,7039,-7.242e-06,-4.61e-06,0.0,0.5,0.5,0.5
STARLINK-32107,2024-086N,2025-08-01T04:05:22.639488,15.2757475,0.0001105,43.0003,225.5252,301.3829,58.6915,0,U,59694,999,7014,3.4428e-05,6.85e-06,0.0,0.5,0.5,0.5
STARLINK-32104,2024-086P,2025-08-01T00:55:53.514912,15.27569321,0.000144,43.0004,222.7252,262.711,97.3578,0,U,59695,999,7032,4.4439e-05,9.61e-06,0.0,0.5,0.5,0.5
STARLINK-32094,2024-086Q,2025-08-01T04:10:58.228320,15.27503153,4.41e-05,42.9982,225.5458,236.7773,123.3037,0,U,59696,999,7009,0.00036006,9.636e-05,0.0,0.5,0.5,0.5
STARLINK-32099,2024-086R,2025-07-31T02:07:03.243936,15.27583205,7.14e-05,43.0,231.1626,282.4626,77.6146,0,U,59697,999,7022,-7.8301e-05,-2.416e-05,0.0,0.5,0.5,0.5
STARLINK-32096,2024-086S,2025-08-01T03:33:55.222848,15.27574391,0.0001072,43.0018,225.3578,275.5035,84.5695,0,U,59698,999,7030,-4.2768e-05,-1.438e-05,0.0,0.5,0.5,0.5
STARLINK-32102,2024-086T,2025-07-31T10:07:05.686176,15.27576941,9.34e-05,43.0001,229.3662,272.1899,87.8845,0,U,59699,999,7027,1.5522e-05,1.65e-06,0.0,0.5,0.5,0.5
STARLINK-32092,2024-086U,2025-07-31T10:33:00.521568,15.27575464,7e-05,42.9992,229.4993,338.4984,21.5838,0,U,59700,999,7027,8.9327e-06,-1.6e-07,0.0,0.5,0.5,0.5
